0 IRIDIUM 106
1 41917U 17003A   24021.75636612  .00000509  00000-0  17479-3 0  9993
2 41917  86.3956  95.2410 0001770 100.1667 259.9728 14.34216640367445
0 IRIDIUM 103
1 41918U 17003B   24021.74368443  .00000016  00000-0 -11870-5 0  9992
2 41918  86.3957  95.1482 0002204  88.5200 271.6248 14.34217052367468
0 IRIDIUM 109
1 41919U 17003C   24021.75002649  .00000015  00000-0 -17007-5 0  9994
2 41919  86.3959  95.1909 0002422  96.6370 263.5102 14.34217161367432
0 IRIDIUM 102
1 41920U 17003D   24021.22993313  .00000469  00000-0  16039-3 0  9999
2 41920  86.3956  95.3507 0002261  94.7540 265.3914 14.34217109367440
0 IRIDIUM 105
1 41921U 17003E   24021.54954692  .00000515  00000-0  17687-3 0  9994
2 41921  86.3939  63.6165 0002191  90.9160 269.2287 14.34220760369342
0 IRIDIUM 104
1 41922U 17003F   24021.24261803  .00000416  00000-0  14162-3 0  9992
2 41922  86.3957  95.3746 0002249  90.5570 269.5883 14.34217489367432
0 IRIDIUM 114
1 41923U 17003G   24021.24896026  .00000497  00000-0  17039-3 0  9999
2 41923  86.3957  95.3584 0001910  99.1864 260.9548 14.34218503367417
0 IRIDIUM 108
1 41924U 17003H   24021.20748186  .00000135  00000-0  41252-4 0  9993
2 41924  86.3936  63.6938 0001878  97.8811 262.2598 14.34217336369264
